[
    {
        "Altitude(m)": 604221.2162679023,
        "Argument of Periapsis(deg)": 0.0,
        "Eccentricity": 0.0,
        "Inclination(deg)": 60.0,
        "Latitude(deg)": 14.117313947928052,
        "Longitude(deg)": 168.33417393963958,
        "Mean Anomaly(deg)": 16.363599999999984,
        "RAAN(deg)": 260.0,
        "Satellite Name": "Test1 1145",
        "Satellite Number": 1145,
        "Semi-Major Axis(m)": 6980739.136638005,
        "Time(s)": 0
    },
    {
        "Altitude(m)": 604235.3575194861,
        "Argument of Periapsis(deg)": 0.00010418945913296404,
        "Eccentricity": 0.0,
        "Inclination(deg)": 60.0,
        "Latitude(deg)": 14.651710299371437,
        "Longitude(deg)": 168.62262176817825,
        "Mean Anomaly(deg)": 16.983706145461838,
        "RAAN(deg)": 259.99957995086027,
        "Satellite Name": "Test1 1145",
        "Satellite Number": 1145,
        "Semi-Major Axis(m)": 6980739.136638005,
        "Time(s)": 10
    },
    {
        "Altitude(m)": 604252.3958596315,
        "Argument of Periapsis(deg)": 0.0002083789182659281,
        "Eccentricity": 0.0,
        "Inclination(deg)": 60.0,
        "Latitude(deg)": 15.185616834527673,
        "Longitude(deg)": 168.91267260614626,
        "Mean Anomaly(deg)": 17.60381229092364,
        "RAAN(deg)": 259.9991599017205,
        "Satellite Name": "Test1 1145",
        "Satellite Number": 1145,
        "Semi-Major Axis(m)": 6980739.136638005,
        "Time(s)": 20
    },
    {
        "Altitude(m)": 604272.2994594101,
        "Argument of Periapsis(deg)": 0.00031256837739889213,
        "Eccentricity": 0.0,
        "Inclination(deg)": 60.0,
        "Latitude(deg)": 15.719012248699743,
        "Longitude(deg)": 169.20439396583222,
        "Mean Anomaly(deg)": 18.223918436385496,
        "RAAN(deg)": 259.9987398525808,
        "Satellite Name": "Test1 1145",
        "Satellite Number": 1145,
        "Semi-Major Axis(m)": 6980739.136638005,
        "Time(s)": 30
    },
    {
        "Altitude(m)": 604295.0352151577,
        "Argument of Periapsis(deg)": 0.0004167578365318562,
        "Eccentricity": 0.0,
        "Inclination(deg)": 60.0,
        "Latitude(deg)": 16.251874901470632,
        "Longitude(deg)": 169.4978548821417,
        "Mean Anomaly(deg)": 18.844024581847346,
        "RAAN(deg)": 259.998319803441,
        "Satellite Name": "Test1 1145",
        "Satellite Number": 1145,
        "Semi-Major Axis(m)": 6980739.136638005,
        "Time(s)": 40
    },
    {
        "Altitude(m)": 604320.5687674225,
        "Argument of Periapsis(deg)": 0.0005209472956648203,
        "Eccentricity": 0.0,
        "Inclination(deg)": 60.0,
        "Latitude(deg)": 16.784182800668706,
        "Longitude(deg)": 169.79312494817881,
        "Mean Anomaly(deg)": 19.46413072730915,
        "RAAN(deg)": 259.9978997543013,
        "Satellite Name": "Test1 1145",
        "Satellite Number": 1145,
        "Semi-Major Axis(m)": 6980739.136638005,
        "Time(s)": 50
    },
    {
        "Altitude(m)": 604348.8645204817,
        "Argument of Periapsis(deg)": 0.0006251367547977843,
        "Eccentricity": 0.0,
        "Inclination(deg)": 60.0,
        "Latitude(deg)": 17.31591358584744,
        "Longitude(deg)": 170.09027486455398,
        "Mean Anomaly(deg)": 20.084236872771,
        "RAAN(deg)": 259.99747970516154,
        "Satellite Name": "Test1 1145",
        "Satellite Number": 1145,
        "Semi-Major Axis(m)": 6980739.136638005,
        "Time(s)": 60
    },
    {
        "Altitude(m)": 604379.8856624529,
        "Argument of Periapsis(deg)": 0.0007293262139307483,
        "Eccentricity": 0.0,
        "Inclination(deg)": 60.0,
        "Latitude(deg)": 17.84704451125827,
        "Longitude(deg)": 170.38937698957164,
        "Mean Anomaly(deg)": 20.704343018232805,
        "RAAN(deg)": 259.9970596560218,
        "Satellite Name": "Test1 1145",
        "Satellite Number": 1145,
        "Semi-Major Axis(m)": 6980739.136638005,
        "Time(s)": 70
    },
    {
        "Altitude(m)": 604413.5941859601,
        "Argument of Periapsis(deg)": 0.0008335156730637124,
        "Eccentricity": 0.0,
        "Inclination(deg)": 60.0,
        "Latitude(deg)": 18.377552428296536,
        "Longitude(deg)": 170.6905043774477,
        "Mean Anomaly(deg)": 21.32444916369466,
        "RAAN(deg)": 259.99663960688207,
        "Satellite Name": "Test1 1145",
        "Satellite Number": 1145,
        "Semi-Major Axis(m)": 6980739.136638005,
        "Time(s)": 80
    },
    {
        "Altitude(m)": 604449.9509093949,
        "Argument of Periapsis(deg)": 0.0009377051321966765,
        "Eccentricity": 0.0,
        "Inclination(deg)": 60.0,
        "Latitude(deg)": 18.907413767388874,
        "Longitude(deg)": 170.9937313303269,
        "Mean Anomaly(deg)": 21.94455530915646,
        "RAAN(deg)": 259.99621955774234,
        "Satellite Name": "Test1 1145",
        "Satellite Number": 1145,
        "Semi-Major Axis(m)": 6980739.136638005,
        "Time(s)": 90
    },
    {
        "Altitude(m)": 604488.9154987241,
        "Argument of Periapsis(deg)": 0.0010418945913296407,
        "Eccentricity": 0.0,
        "Inclination(deg)": 60.0,
        "Latitude(deg)": 19.436604519300804,
        "Longitude(deg)": 171.29913395124885,
        "Mean Anomaly(deg)": 22.564661454618314,
        "RAAN(deg)": 259.99579950860254,
        "Satellite Name": "Test1 1145",
        "Satellite Number": 1145,
        "Semi-Major Axis(m)": 6980739.136638005,
        "Time(s)": 100
    },
    {
        "Altitude(m)": 604530.446489788,
        "Argument of Periapsis(deg)": 0.0011460840504626045,
        "Eccentricity": 0.0,
        "Inclination(deg)": 60.0,
        "Latitude(deg)": 19.965100215839367,
        "Longitude(deg)": 171.60678918520748,
        "Mean Anomaly(deg)": 23.184767600080114,
        "RAAN(deg)": 259.99537945946287,
        "Satellite Name": "Test1 1145",
        "Satellite Number": 1145,
        "Semi-Major Axis(m)": 6980739.136638005,
        "Time(s)": 110
    },
    {
        "Altitude(m)": 604574.5013111935,
        "Argument of Periapsis(deg)": 0.0012502735095955685,
        "Eccentricity": 0.0,
        "Inclination(deg)": 60.0,
        "Latitude(deg)": 20.492875909920045,
        "Longitude(deg)": 171.9167753740705,
        "Mean Anomaly(deg)": 23.80487374554197,
        "RAAN(deg)": 259.9949594103231,
        "Satellite Name": "Test1 1145",
        "Satellite Number": 1145,
        "Semi-Major Axis(m)": 6980739.136638005,
        "Time(s)": 120
    },
    {
        "Altitude(m)": 604621.0363076945,
        "Argument of Periapsis(deg)": 0.0013544629687285324,
        "Eccentricity": 0.0,
        "Inclination(deg)": 60.0,
        "Latitude(deg)": 21.01990615497094,
        "Longitude(deg)": 172.22917281250088,
        "Mean Anomaly(deg)": 24.424979891003822,
        "RAAN(deg)": 259.99453936118334,
        "Satellite Name": "Test1 1145",
        "Satellite Number": 1145,
        "Semi-Major Axis(m)": 6980739.136638005,
        "Time(s)": 130
    },
    {
        "Altitude(m)": 604670.0067640443,
        "Argument of Periapsis(deg)": 0.0014586524278614966,
        "Eccentricity": 0.0,
        "Inclination(deg)": 60.0,
        "Latitude(deg)": 21.546164983649966,
        "Longitude(deg)": 172.54406279201922,
        "Mean Anomaly(deg)": 25.045086036465623,
        "RAAN(deg)": 259.9941193120436,
        "Satellite Name": "Test1 1145",
        "Satellite Number": 1145,
        "Semi-Major Axis(m)": 6980739.136638005,
        "Time(s)": 140
    },
    {
        "Altitude(m)": 604721.3669293933,
        "Argument of Periapsis(deg)": 0.0015628418869944607,
        "Eccentricity": 0.0,
        "Inclination(deg)": 60.0,
        "Latitude(deg)": 22.07162588583891,
        "Longitude(deg)": 172.86152815896628,
        "Mean Anomaly(deg)": 25.665192181927477,
        "RAAN(deg)": 259.9936992629039,
        "Satellite Name": "Test1 1145",
        "Satellite Number": 1145,
        "Semi-Major Axis(m)": 6980739.136638005,
        "Time(s)": 150
    },
    {
        "Altitude(m)": 604775.0700421063,
        "Argument of Periapsis(deg)": 0.0016670313461274247,
        "Eccentricity": 0.0,
        "Inclination(deg)": 60.0,
        "Latitude(deg)": 22.596261785886977,
        "Longitude(deg)": 173.1816538734978,
        "Mean Anomaly(deg)": 26.285298327389278,
        "RAAN(deg)": 259.99327921376414,
        "Satellite Name": "Test1 1145",
        "Satellite Number": 1145,
        "Semi-Major Axis(m)": 6980739.136638005,
        "Time(s)": 160
    },
    {
        "Altitude(m)": 604831.0683550852,
        "Argument of Periapsis(deg)": 0.0017712208052603888,
        "Eccentricity": 0.0,
        "Inclination(deg)": 60.0,
        "Latitude(deg)": 23.12004501907569,
        "Longitude(deg)": 173.50452605674386,
        "Mean Anomaly(deg)": 26.90540447285113,
        "RAAN(deg)": 259.9928591646244,
        "Satellite Name": "Test1 1145",
        "Satellite Number": 1145,
        "Semi-Major Axis(m)": 6980739.136638005,
        "Time(s)": 170
    },
    {
        "Altitude(m)": 604889.3131615159,
        "Argument of Periapsis(deg)": 0.001875410264393353,
        "Eccentricity": 0.0,
        "Inclination(deg)": 60.0,
        "Latitude(deg)": 23.642947307266624,
        "Longitude(deg)": 173.8302325518779,
        "Mean Anomaly(deg)": 27.525510618312932,
        "RAAN(deg)": 259.9924391154846,
        "Satellite Name": "Test1 1145",
        "Satellite Number": 1145,
        "Semi-Major Axis(m)": 6980739.136638005,
        "Time(s)": 180
    },
    {
        "Altitude(m)": 604949.7548210578,
        "Argument of Periapsis(deg)": 0.0019795997235263173,
        "Eccentricity": 0.0,
        "Inclination(deg)": 60.0,
        "Latitude(deg)": 24.164939733702965,
        "Longitude(deg)": 174.15886348621927,
        "Mean Anomaly(deg)": 28.14561676377479,
        "RAAN(deg)": 259.99201906634494,
        "Satellite Name": "Test1 1145",
        "Satellite Number": 1145,
        "Semi-Major Axis(m)": 6980739.136638005,
        "Time(s)": 190
    }
]